[ 
    {
        "tleLine1": "1 26052U 00001A   14001.00000000 0.00000000  00000-0  00000-0 0    05", 
        "name": "DSCS 3-11", 
        "norad_id": 26052, 
        "tleLine2": "2 26052   4.5566  63.6192 0003963 237.4497 309.0377  1.00270000    06", 
        "state": "operational", 
        "transmitters": [], 
        "type": "classfd"
    }, 
    {
        "tleLine1": "1 26054U 00001C   15088.48830995 0.00000000  00000-0  00000-0 0    09", 
        "name": "DSCS 3-11 r2", 
        "norad_id": 26054, 
        "tleLine2": "2 26054  12.1657  36.2177 0020797 238.6051 121.2033  1.01181228    03", 
        "state": "operational", 
        "transmitters": [], 
        "type": "classfd"
    }, 
    {
        "tleLine1": "1 26065U 00004E   15100.06137219 0.00000230  00000-0  77765-4 0    03", 
        "name": "JAWSAT", 
        "norad_id": 26065, 
        "tleLine2": "2 26065 100.2276 307.7529 0031976  41.8597 318.1402 14.36642428    01", 
        "state": "operational", 
        "transmitters": [], 
        "type": "classfd"
    }, 
    {
        "tleLine1": "1 26071U 00007A   16070.40407025 -.00000234  00000-0  00000+0 0  9998", 
        "name": "HISPASAT 1C", 
        "norad_id": 26071, 
        "tleLine2": "2 26071   0.0447  42.9928 0002321 304.8919 242.2236  1.00271336 59029", 
        "state": "operational", 
        "transmitters": [], 
        "type": "geostationary"
    }, 
    {
        "tleLine1": "1 26081U 00008A   16069.90810741 -.00000086  00000-0  98474-4 0  9998", 
        "name": "GLOBALSTAR M063", 
        "norad_id": 26081, 
        "tleLine2": "2 26081  51.9984 322.6133 0000946 134.6955 304.9098 12.62270243750359", 
        "state": "operational", 
        "transmitters": [], 
        "type": "globalstar"
    }, 
    {
        "tleLine1": "1 26084U 00008D   16070.42480486 -.00000083  00000-0 -18457-5 0  9991", 
        "name": "GLOBALSTAR M064", 
        "norad_id": 26084, 
        "tleLine2": "2 26084  52.0024 166.5284 0001928  56.7516 303.3501 11.88462895764630", 
        "state": "operational", 
        "transmitters": [], 
        "type": "globalstar"
    }, 
    {
        "tleLine1": "1 01512U 65065E   16070.49361515  .00000010  00000-0  26998-5 0  9999", 
        "name": "TEMPSAT 1", 
        "norad_id": 1512, 
        "tleLine2": "2 01512  89.8015 250.6497 0069273 341.4333  70.4206 13.33389673460200", 
        "state": "operational", 
        "transmitters": [], 
        "type": "radar"
    }, 
    {
        "tleLine1": "1 26095U 00012A   16070.27465137 -.00000114  00000-0  00000+0 0  9990", 
        "name": "SUPERBIRD-B2", 
        "norad_id": 26095, 
        "tleLine2": "2 26095   0.0410 251.7962 0002274 126.2840  51.1324  1.00272360 58829", 
        "state": "operational", 
        "transmitters": [], 
        "type": "geostationary"
    }, 
    {
        "tleLine1": "1 01520U 65065H   16071.22225301  .00000078  00000-0  13552-3 0  9996", 
        "name": "CALSPHERE 4(A)", 
        "norad_id": 1520, 
        "tleLine2": "2 01520  90.0983 118.5763 0067475 236.9363 209.5696 13.35692368462455", 
        "state": "operational", 
        "transmitters": [], 
        "type": "radar"
    }, 
    {
        "tleLine1": "1 26102U 00014A   16071.01243197  .00015909  00000-0  38242-3 0  9994", 
        "name": "MTI", 
        "norad_id": 26102, 
        "tleLine2": "2 26102  97.5204 218.2217 0010479 142.3270 357.1358 15.41354049883033", 
        "state": "operational", 
        "transmitters": [], 
        "type": "military"
    }, 
    {
        "tleLine1": "1 17912U 87038B   16070.79719394  .00000214  00000-0  23499-4 0  9997", 
        "name": "SL-14 R/B", 
        "norad_id": 17912, 
        "tleLine2": "2 17912  82.5017 125.1238 0019242 319.9670  40.0125 14.82845170559056", 
        "state": "operational", 
        "transmitters": [], 
        "type": "visible"
    }, 
    {
        "tleLine1": "1 26107U 00016A   16070.47057524 -.00000005  00000-0  10000-3 0  9991", 
        "name": "ASIASTAR", 
        "norad_id": 26107, 
        "tleLine2": "2 26107   0.7263  80.9549 0004631 260.9485 100.9715  1.00262556 58541", 
        "state": "operational", 
        "transmitters": [], 
        "type": "geostationary"
    }, 
    {
        "tleLine1": "1 17973U 87041A   16070.21650573 -.00000179  00000-0 -68541-4 0  9997", 
        "name": "COSMOS 1844", 
        "norad_id": 17973, 
        "tleLine2": "2 17973  70.9003 171.3907 0028358 102.6354 257.7941 14.14021961487556", 
        "state": "operational", 
        "transmitters": [], 
        "type": "visible"
    }, 
    {
        "tleLine1": "1 09803U 77007A   15099.13013673 0.00000000  00000-0  00000-0 0    02", 
        "name": "DSP F7", 
        "norad_id": 9803, 
        "tleLine2": "2 09803  13.3289 328.0152 0079339 286.5413  72.6006  0.97529510    08", 
        "state": "operational", 
        "transmitters": [], 
        "type": "classfd"
    }, 
    {
        "tleLine1": "1 17997U 87043A   15079.85897930 0.00002800  00000-0  54549-3 0    09", 
        "name": "NOSS 8 (A)", 
        "norad_id": 17997, 
        "tleLine2": "2 17997  63.3430  69.3602 0820391  34.1069 325.8930 13.45065530    08", 
        "state": "operational", 
        "transmitters": [], 
        "type": "classfd"
    }, 
    {
        "tleLine1": "1 18009U 87043E   15120.09334458 0.00003000  00000-0  60349-3 0    06", 
        "name": "NOSS 8 (E)", 
        "norad_id": 18009, 
        "tleLine2": "2 18009  63.3410 352.9975 0823004  34.6267 325.3733 13.43511554    00", 
        "state": "operational", 
        "transmitters": [], 
        "type": "classfd"
    }, 
    {
        "tleLine1": "1 18010U 87043F   15105.88229155 0.00003000  00000-0  61230-3 0    05", 
        "name": "NOSS 8 (F)", 
        "norad_id": 18010, 
        "tleLine2": "2 18010  63.3420  30.0219 0821117  34.0238 325.9762 13.43404451    08", 
        "state": "operational", 
        "transmitters": [], 
        "type": "classfd"
    }, 
    {
        "tleLine1": "1 09829U 77010A   16070.10381824 -.00001353  00000-0  36222-4 0  9996", 
        "name": "MOLNIYA 2-17", 
        "norad_id": 9829, 
        "tleLine2": "2 09829  62.1141 302.4547 7388551 249.9183  22.0802  2.00690664286332", 
        "state": "operational", 
        "transmitters": [], 
        "type": "molniya"
    }, 
    {
        "tleLine1": "1 37137U 10041A   16070.45516097  .00000000  00000-0  10000-3 0  9992", 
        "name": "COSMOS 2466 (738)", 
        "norad_id": 37137, 
        "tleLine2": "2 37137  64.8755 319.9949 0018508 152.4591 207.7110  2.13109447 42972", 
        "state": "operational", 
        "transmitters": [], 
        "type": "glo-ops"
    }, 
    {
        "tleLine1": "1 18025U 87043H   15113.81840337 0.00001300  00000-0  25720-3 0    09", 
        "name": "NOSS 8 (H)", 
        "norad_id": 18025, 
        "tleLine2": "2 18025  63.3452  12.6647 0827429  28.4273 331.5727 13.43191225    04", 
        "state": "operational", 
        "transmitters": [], 
        "type": "classfd"
    }, 
    {
        "tleLine1": "1 37138U 10041B   16071.24345470 -.00000021  00000-0  00000+0 0  9995", 
        "name": "COSMOS 2465 (737)", 
        "norad_id": 37138, 
        "tleLine2": "2 37138  64.8928 320.0397 0032947 167.6890 258.9069  2.13101209 42988", 
        "state": "operational", 
        "transmitters": [], 
        "type": "glo-ops"
    }, 
    {
        "tleLine1": "1 09855U 77007C   15074.80028913 0.00000000  00000-0  00000-0 0    09", 
        "name": "DSP F7 r2", 
        "norad_id": 9855, 
        "tleLine2": "2 09855  12.2504 323.1015 0014666 271.2297  88.6175  1.00299474    02", 
        "state": "operational", 
        "transmitters": [], 
        "type": "classfd"
    }, 
    {
        "tleLine1": "1 09856U 77007D   14115.47134620 0.00000000  00000-0  00000-0 0    01", 
        "name": "DSP F7 Cover", 
        "norad_id": 9856, 
        "tleLine2": "2 09856  12.3628 324.0873 0234341 358.7278   1.2255  1.00592841    01", 
        "state": "operational", 
        "transmitters": [], 
        "type": "classfd"
    }, 
    {
        "tleLine1": "1 26243U 00019A   16070.11175172  .00000074  00000-0  00000+0 0  9996", 
        "name": "EUTELSAT 16C", 
        "norad_id": 26243, 
        "tleLine2": "2 26243   3.3883  68.7575 0003337 285.0713 229.0858  1.00272259 58177", 
        "state": "operational", 
        "transmitters": [], 
        "type": "geostationary"
    }, 
    {
        "tleLine1": "1 09880U 77021A   16070.55901308 -.00000558  00000-0 -17920-2 0  9998", 
        "name": "MOLNIYA 1-36", 
        "norad_id": 9880, 
        "tleLine2": "2 09880  61.9248 266.4486 7366502 261.1323  17.0524  2.00888792183511", 
        "state": "operational", 
        "transmitters": [], 
        "type": "molniya"
    }, 
    {
        "tleLine1": "1 09941U 77032A   16068.56177794 -.00000948  00000-0 -56125-3 0  9994", 
        "name": "MOLNIYA 3-7", 
        "norad_id": 9941, 
        "tleLine2": "2 09941  61.7309 275.3285 7400327 253.9859  19.8493  2.00659971281898", 
        "state": "operational", 
        "transmitters": [], 
        "type": "molniya"
    }, 
    {
        "tleLine1": "1 18153U 87055B   16070.37878878  .00000288  00000-0  32307-4 0  9990", 
        "name": "SL-14 R/B", 
        "norad_id": 18153, 
        "tleLine2": "2 18153  82.5028 179.8982 0022016 167.4870 192.6897 14.83090632549616", 
        "state": "operational", 
        "transmitters": [], 
        "type": "visible"
    }, 
    {
        "tleLine1": "1 26356U 00024A   14349.34886574 0.00000000  00000-0  00000-0 0    07", 
        "name": "DSP F20", 
        "norad_id": 26356, 
        "tleLine2": "2 26356   9.4030  43.9300 0003300 287.8720  71.6921  1.00270000    05", 
        "state": "operational", 
        "transmitters": [], 
        "type": "classfd"
    }
]